"provider_id","provider_name","specialty","address_street","address_city","address_state","address_zip"
"P247884957","Merrill Z. Decker"," Dermatology ","3337 Sed Ave","Bridgeport","CT","12297"
"P331044626","Fleur F. Boyer"," Dermatology ","223-2147 Penatibus Avenue","Bear","DE","58274"
"P118685693","Erich E. Spears"," General hematology ","5961 Sed Rd.","Houston","Texas","85501"
"P802173626","Emerson G. Petersen"," General Practitioner ","9426 Eu Rd.","Harrisburg","PA","93940"
"P485678730","Marah Z. Horn"," Clinical biology ","152-8175 Suspendisse Road","Atlanta","GA","21571"
"P190279041","Kristen V. Blake"," Internal medicine ","P.O. Box 944, 3305 Eu Avenue","Las Vegas","NV","58451"
"P541170364","Dora T. Heath"," Dermatology ","P.O. Box 974, 6415 Arcu. Rd.","Georgia","Georgia","36357"
"P635145420","Adele J. Allison"," Cardiology ","8679 Semper Av.","Springfield","MO","71576"
"P961868819","Dana O. Gilliam"," General Practitioner ","7379 Eu Avenue","Great Falls","MT","61200"
"P732096570","Elizabeth W. Frost"," Orthopaedics ","713-7204 Fermentum Street","Wyoming","WY","73867"
"P742341364","Imelda E. Goff"," Tropical medicine ","345 Nullam Road","Rochester","MN","48126"
"P809710281","Melinda O. Griffith"," Pathology ","358-7710 Sed Ave","West Valley City","UT","38380"
"P861124815","Lars U. Buck"," Podiatric Surgery ","P.O. Box 212, 8726 Nulla Rd.","Lowell","MA","16412"
"P837529935","Raja L. Burton"," Neurosurgery ","1856 Nisl. Avenue","Fayetteville","AR","72483"
"P307918645","Linus H. Osborne"," Pathology ","P.O. Box 156, 8639 Lorem, Ave","Cheyenne","WY","71428"
"P004165295","Thane O. Richard"," Radiology ","Ap #256-3260 Nulla Street","Augusta","Georgia","55956"
"P693623397","Dorian B. Harrell"," Infectious diseases ","136 Mi Street","Kaneohe","Hawaii","47327"
"P992476391","Brennan U. Franks"," Cardiology ","P.O. Box 843, 1802 Aliquam St.","Baltimore","MD","76971"
"P941322877","Amanda A. Stanley"," Neurology ","6853 Magna. St.","Rockville","MD","40156"
"P124535465","Amena W. Soto"," Infectious diseases ","1120 Accumsan Street","Austin","Texas","91631"
"P770815171","Margaret M. Quinn"," Internal medicine ","P.O. Box 125, 2648 Consequat Av.","Duluth","MN","95671"
"P536973426","Jameson X. Delaney"," Nurse Practitioner","P.O. Box 375, 9837 Placerat. Av.","Rochester","MN","44496"
"P142255781","Garrison R. Macdonald"," Geriatrics ","1303 Mi, Avenue","Pittsburgh","PA","81163"
"P084521574","Kasper T. Rojas"," Tropical medicine ","P.O. Box 840, 7560 Tellus. St.","Springfield","MA","58042"
"P546736363","Evelyn Y. Edwards"," Nuclear medicine ","9868 Faucibus Rd.","Kailua","HI","52532"
"P418854238","Jordan H. Gross"," General Practitioner ","Ap #277-6938 Nunc Av.","Duluth","MN","64690"
"P354366912","Dominique T. Oneal"," europhysiology ","P.O. Box 696, 8160 Ut Rd.","Shreveport","Louisiana","95308"
"P011948784","Carson M. Padilla"," Nephrology ","P.O. Box 515, 5196 Euismod Avenue","Allentown","Pennsylvania","52764"
"P275959088","Gay F. Anderson"," Rheumatology ","4006 Nam St.","Atlanta","GA","77089"
"P995048374","Mason T. Coleman"," General Practitioner ","7290 Ut, Rd.","South Portland","Maine","37340"
"P762370192","Miranda K. Clayton"," Geriatrics ","P.O. Box 724, 371 Dolor Rd.","Lewiston","ME","56466"
"P681464849","Hilel L. Mullen"," Otorhinolaryngology ","P.O. Box 176, 1839 Sed Avenue","Baton Rouge","LA","92637"
"P157044775","Sylvia J. Henderson"," Craniofacial surgery ","7636 Libero Avenue","Jackson","MS","20332"
"P834357995","Kylynn Y. Horn"," Craniofacial surgery ","1782 Nec, Rd.","Kapolei","Hawaii","26373"
"P574509157","Francesca H. Petty"," Dental, oral and maxillo-facial surgery ","P.O. Box 332, 811 Egestas Ave","Nashville","Tennessee","94194"
"P836367379","Vladimir X. Chen"," Nurse Practitioner","Ap #547-1785 Tellus St.","Sterling Heights","MI","68193"
"P228679473","Quamar J. Quinn"," Ophthalmology ","Ap #879-7146 Nulla Rd.","Kearney","Nebraska","32375"
"P757483822","Bruno D. Henderson"," Gastro-enterologic surgery ","P.O. Box 445, 5563 Cras Av.","Allentown","PA","52735"
"P112268171","Ila J. Ryan"," General surgery ","Ap #607-980 Cursus. Rd.","Erie","PA","99476"
"P889783577","Matthew W. Levine"," Allergology ","314-4567 Facilisis. Road","Aurora","CO","36171"
"P784966536","Philip W. Snyder"," Gastroenterology ","361 Laoreet Rd.","Waterbury","Connecticut","77538"
"P595982209","Libby J. Chandler"," Tropical medicine ","279-1147 Nec, Av.","Allentown","Pennsylvania","53960"
"P365649492","Dora U. Barton"," Pharmacology ","955-8624 Sed Rd.","Kearney","NE","93208"
"P977523747","Lynn Y. Zamora"," europhysiology ","P.O. Box 744, 7987 Imperdiet Av.","Bellevue","WA","14019"
"P379913143","Jana Z. Mcbride"," Geriatrics ","Ap #585-5365 Donec Ave","Fort Worth","TX","81361"
"P400222207","Megan O. Beach"," Pathology ","Ap #266-1749 Risus. Road","Nampa","Idaho","55904"
"P814594915","Stephen P. Jackson","Accident and emergency medicine ","1876 Dolor Road","Topeka","KS","99590"
"P484843376","Salvador R. Harrison"," Child psychiatry ","129-765 Non St.","Newark","DE","32498"
"P716586122","Moses Y. Sherman"," General Practice ","4663 Et Av.","Sioux City","IA","91813"
"P695261662","Tara L. Pugh"," Radiotherapy ","P.O. Box 989, 5219 Amet Rd.","Cincinnati","OH","96861"
"P115366834","Lara B. Cannon"," Plastic surgery ","P.O. Box 530, 2655 Purus, Rd.","Gulfport","Mississippi","43368"
"P996859150","Clare N. Bolton"," Urology ","Ap #304-9699 Quisque Avenue","Fort Wayne","Indiana","89209"
"P000403292","Daryl U. Whitney"," Pharmacology ","574-8652 In Ave","Houston","Texas","29249"
"P240815500","Willa X. Blackwell"," Tropical medicine ","P.O. Box 430, 8964 Urna. St.","Chesapeake","Virginia","10175"
"P835226742","Aurora D. Woodward"," Nurse Practitioner","704-9307 Ante Avenue","Oklahoma City","OK","79276"
"P699661068","Tamekah N. Newton"," Orthopaedics ","644-9230 Vestibulum Av.","Olympia","WA","51433"
"P710603887","Iona B. Oconnor"," Clinical  ","905-2450 Blandit St.","Vancouver","WA","96260"
"P643515204","Hilel S. Stevens"," Urology ","2754 Felis St.","Portland","OR","64266"
"P216131155","Cheyenne L. Mccormick"," Psychiatry ","444-2866 Urna. Rd.","South Bend","IN","27233"
"P501713637","Abel H. Haley"," Rheumatology ","Ap #420-7194 Tempor Road","Carson City","NV","77859"
"P016184071","Hannah L. Cohen"," General surgery ","P.O. Box 680, 4659 Tortor. Rd.","Tacoma","Washington","55969"
"P198361770","Wayne T. Ellison"," Internal medicine ","8503 Libero Avenue","Minneapolis","MN","13983"
"P583424362","Tobias A. Nieves"," Podiatric Surgery ","P.O. Box 582, 7275 Diam St.","South Bend","Indiana","93908"
"P013141176","Erasmus K. Blake"," Paediatric surgery ","290-5784 Luctus Rd.","Cincinnati","OH","97429"
"P540890503","Rama O. Finch"," Dental, oral and maxillo-facial surgery ","440-4146 Pharetra Rd.","St. Petersburg","FL","94569"
"P436767764","Elvis Q. Good"," Immunology ","2648 Interdum Road","Chattanooga","Tennessee","60804"
"P858174350","Sydney N. Knowles"," Public health and Preventive Medicine ","Ap #567-7416 Aliquam Rd.","San Antonio","Texas","60806"
"P829668583","Moses O. Lynn"," Obstetrics and gynecology ","658-4421 Pede Avenue","Montpelier","Vermont","39434"
"P754425474","Winter S. Albert"," Neurology ","Ap #874-6867 At Rd.","Newark","Delaware","95244"
"P233646326","Nyssa U. Clark"," Clinical chemistry ","612-9588 Lectus Ave","Minneapolis","MN","94878"
"P279459358","McKenzie I. Huff"," Laboratory medicine ","910-8175 Quam Rd.","Southaven","MS","52994"
"P974513902","Cody R. Salas"," Pathology ","Ap #320-4588 Libero. Rd.","Ketchikan","AK","99957"
"P172286355","Risa Z. Montoya"," Infectious diseases ","P.O. Box 299, 9123 Aliquam Av.","Georgia","Georgia","75553"
"P845339962","Quinn M. Wall"," Microbiology ","P.O. Box 809, 9365 Egestas St.","Salt Lake City","Utah","22778"
"P972825342","Stewart F. Cunningham"," Psychiatry ","3103 Velit Ave","Minneapolis","Minnesota","65493"
"P704856564","Solomon M. Gregory"," Ophthalmology ","Ap #793-3026 Malesuada. Street","Louisville","Kentucky","54693"
"P480761976","Sophia R. Burks"," Endocrinology ","7497 Erat Road","Fresno","California","94528"
"P219769246","Brennan I. Norman"," Nurse Practitioner","P.O. Box 602, 912 Malesuada Rd.","Olathe","KS","31005"
"P800451776","Cheyenne U. Greer"," Nuclear medicine ","P.O. Box 219, 6364 Commodo Road","Fairbanks","AK","99602"
"P843180600","Melanie Y. Witt"," Laboratory medicine ","891-198 Risus Road","West Jordan","Utah","94303"
"P915868757","Hadley B. Williams"," Thoracic surgery ","Ap #962-6736 Nisl Road","Cheyenne","Wyoming","46476"
"P221360197","Scarlet B. Gutierrez"," europhysiology ","925 Metus. Ave","Des Moines","Iowa","37675"
"P993836918","Ocean J. Haley"," Child psychiatry ","713-2741 Morbi Road","Bloomington","MN","28825"
"P589985152","Harriet C. Middleton"," Neurosurgery ","Ap #213-1248 Lacinia Road","Cleveland","OH","12374"
"P808268051","Pearl A. Wade"," Obstetrics and gynecology ","P.O. Box 732, 106 Pellentesque Avenue","Vancouver","Washington","72126"
"P571792224","Lee B. Bartlett"," Child psychiatry ","Ap #425-6855 Cursus Rd.","Jefferson City","Missouri","39514"
"P165655698","Carolyn X. Ryan"," Endocrinology ","735 At, Road","Cambridge","Massachusetts","15665"
"P194942046","Hilary C. Smith"," Gastro-enterologic surgery ","P.O. Box 787, 951 Nulla Rd.","Billings","Montana","28841"
"P067015025","Sierra C. Rosario"," Allergology ","8294 Neque St.","Nashville","Tennessee","98344"
"P333482950","Blair K. Moody"," Laboratory medicine ","8945 Mauris. Rd.","Gary","Indiana","63264"
"P011213215","Avye V. Watkins"," Geriatrics ","803-4553 Tortor. Avenue","Idaho Falls","Idaho","18653"
"P551395620","Carter F. Duffy"," Orthopaedics ","383-9748 Donec Street","Bellevue","Nebraska","92501"
"P685824379","Victor U. Morrison"," Occupational medicine ","P.O. Box 213, 2937 Imperdiet Ave","Mesa","Arizona","86643"
"P486211429","Reed Y. Perry"," Venereology ","P.O. Box 955, 7454 Rutrum Av.","Juneau","AK","99906"
"P769909445","Chastity G. Cline"," Public health and Preventive Medicine ","2715 Eu, Street","Green Bay","WI","52048"
"P875345687","Yetta X. Sears"," General hematology ","774-1469 Ut, St.","Atlanta","Georgia","29144"
"P657050403","Edan F. Evans"," Obstetrics and gynecology ","P.O. Box 568, 9042 Metus. Ave","Tallahassee","FL","75038"
"P776806190","Jared R. Hill"," Ophthalmology ","149-3229 Purus Avenue","Fort Worth","Texas","33176"
"P280825905","Zephr J. Castaneda"," Respiratory medicine ","P.O. Box 581, 3332 Imperdiet Street","Knoxville","Tennessee","71987"
"P003944594","Christopher J. Vega"," Plastic surgery ","P.O. Box 198, 6017 Dignissim Rd.","New Haven","Connecticut","41592"
"P926237465","Perry H. Ruiz"," General surgery ","327-8259 Eu Road","Gary","Indiana","54927"
"P200211294","Zachary P. Bryan"," Urology ","Ap #799-7924 Facilisis, Street","Baltimore","Maryland","34927"
"P412089557","Emily C. Skinner"," Tropical medicine ","6365 At St.","Helena","MT","38460"
"P862593323","Curran S. Bates"," Dermatology ","P.O. Box 158, 5302 Praesent Ave","Casper","Wyoming","30079"
"P963117364","Madeline O. Mcgowan"," Anaesthetics ","P.O. Box 917, 7386 Non St.","Springdale","AR","72490"
"P279435891","Ginger Q. Benton"," Gastroenterology ","P.O. Box 958, 8048 Magna, Av.","Los Angeles","CA","94330"
"P801271677","Mikayla G. Reynolds"," Neuro-psychiatry ","2890 Ut, Ave","Idaho Falls","Idaho","50597"
"P195762294","Libby M. Conway"," Stomatology ","Ap #978-8296 Imperdiet St.","Sacramento","CA","90566"
"P362068203","Damian C. Everett"," Stomatology ","P.O. Box 939, 2271 At Rd.","Montpelier","VT","41981"
"P817102740","Mikayla L. Espinoza"," Nuclear medicine ","Ap #428-6043 Hymenaeos. Avenue","Boston","MA","18289"
"P672766932","Camden C. Lambert"," Plastic surgery ","P.O. Box 516, 1026 Ipsum. St.","Omaha","Nebraska","36035"
"P298963655","Isabella A. Robinson"," Anaesthetics ","P.O. Box 427, 3759 A St.","Kansas City","Kansas","56514"
"P732463181","Demetria N. Maynard"," Laboratory medicine ","122-3632 Ipsum. Ave","Chicago","Illinois","43919"
"P323895785","Rama M. Luna"," Pharmacology ","7544 A Ave","South Portland","Maine","71733"
"P299303029","Ava S. Garcia"," Immunology ","774-6796 Erat, Av.","Jefferson City","Missouri","29999"
"P559431634","Oren T. Shannon"," Microbiology ","441-7925 Vitae Rd.","Nashville","Tennessee","48870"
"P039730872","Sydnee P. Bryant"," Urology ","554-7344 Convallis Ave","Lincoln","Nebraska","50159"
"P160698583","Jonas W. Sweeney"," Cardiology ","Ap #469-3880 Non, Av.","Clarksville","TN","23524"
"P783463124","Phoebe I. Lowery"," Nurse Practitioner","478-5281 Nunc. St.","New Haven","Connecticut","43782"
"P895133877","Nathan Y. Young"," Clinical  ","P.O. Box 818, 2064 Nullam Rd.","Portland","ME","99130"
"P350441904","Faith I. Hanson"," Venereology ","Ap #711-4731 Fusce St.","Chattanooga","TN","61733"
"P041165512","Inga W. Zamora"," Plastic surgery ","9529 Arcu Av.","Kailua","Hawaii","71929"
"P960755822","Walter I. Murphy"," Dental, oral and maxillo-facial surgery ","Ap #684-754 Elementum Av.","Memphis","Tennessee","91680"
"P826670109","Kim S. Holder"," Geriatrics ","Ap #674-4227 Praesent Street","South Bend","IN","60280"
"P605157755","Knox H. Roman"," Obstetrics and gynecology ","P.O. Box 994, 4901 Aliquam Rd.","Toledo","Ohio","90181"
"P364594782","Quentin T. Patton"," Public health and Preventive Medicine ","7777 Porttitor Avenue","Tacoma","Washington","15487"
"P997002596","Jonas P. Simpson"," europhysiology ","Ap #483-935 Magnis Street","Gresham","Oregon","69260"
"P282787223","Ivor Q. Palmer"," Clinical  ","453-3494 Mi Road","Owensboro","Kentucky","80610"
"P191314627","Jemima J. Sears"," Orthopaedics ","P.O. Box 555, 5527 Semper, Avenue","Boise","Idaho","25412"
"P651094201","Lev L. Alston"," Microbiology ","Ap #721-6846 Tincidunt Rd.","Rutland","VT","19361"
"P527703961","Halla A. Morin"," Public health and Preventive Medicine ","198-8738 Mi Ave","Davenport","IA","55950"
"P218937578","Yvette I. Mccray"," Vascular surgery ","9722 Enim Ave","Lewiston","ME","47768"
"P984170177","Ina W. Patterson"," Paediatrics ","375-3313 Conubia Street","Kaneohe","HI","27025"
"P967451672","Keith R. Frank"," Neuro-psychiatry ","Ap #246-2826 Natoque Avenue","Dallas","Texas","87222"
"P669682986","Kelsie Y. Nash"," Dental, oral and maxillo-facial surgery ","Ap #909-9936 Facilisis, St.","Oklahoma City","Oklahoma","58450"
"P096247131","Wendy J. Carver"," Nephrology ","Ap #309-6037 Diam Av.","Worcester","MA","48885"
"P638119796","Tyrone H. Oneal"," Thoracic surgery ","480-9852 Varius Ave","Augusta","GA","21064"
"P564141506","Desiree E. Ellis"," Infectious diseases ","4063 Lectus St.","Hillsboro","OR","83543"
"P218910258","Fleur V. Henson"," Podiatric Surgery ","Ap #141-7921 Lectus Street","Saint Paul","Minnesota","65371"
"P332627627","Vernon D. Christian"," Neurosurgery ","670-6403 Vivamus Ave","San Antonio","TX","20854"
"P427159607","Lareina L. Irwin"," Cardiology ","Ap #749-8543 In Rd.","Overland Park","Kansas","89769"
"P826118613","Thomas Z. Douglas"," Clinical  ","3981 Etiam Avenue","South Burlington","Vermont","81077"
"P161741910","Gwendolyn V. Brown"," Stomatology ","294-7630 Dui, Ave","Athens","Georgia","73945"
"P438072016","Galvin A. Romero"," Neuro-psychiatry ","275-4090 Eget Ave","Aurora","Colorado","18706"
"P431220953","Gary U. Savage"," Dermatology ","Ap #216-6330 Lacus Rd.","Columbia","Maryland","29187"
"P746454705","Carissa T. Perez"," Thoracic surgery ","Ap #830-8414 Cursus, Rd.","Newark","Delaware","27420"
"P777155420","Xanthus E. Fitzpatrick"," Maxillo-facial surgery ","Ap #283-6087 Eleifend Av.","Idaho Falls","ID","91312"
"P600702086","Basia Y. Lloyd"," Nephrology ","P.O. Box 439, 9555 Sit Street","Honolulu","HI","70462"
"P090982968","Zelda W. Castillo"," Vascular surgery ","Ap #972-8260 Mi Rd.","Idaho Falls","Idaho","48606"
"P513419568","Rachel E. Mcfarland"," Allergology ","317-2381 Pellentesque St.","Dover","Delaware","66184"
"P944196955","Lucius Y. Roth"," Stomatology ","P.O. Box 848, 1526 Rhoncus. St.","Fort Worth","TX","39245"
"P269848928","Uriel F. Hooper"," Dermato-venerology ","6930 Lacinia Road","Los Angeles","CA","95422"
"P651713372","Noelle O. Callahan"," Paediatrics ","Ap #373-4672 Lectus, Rd.","Green Bay","Wisconsin","66361"
"P889295694","Walker V. Atkinson"," Nephrology ","P.O. Box 542, 9388 Ultrices. St.","Bowling Green","Kentucky","97775"
"P396951099","Zorita P. Conner"," Rheumatology ","320-7389 Proin Road","Wichita","Kansas","99497"
"P083871394","Myles O. Vargas"," Pharmacology ","P.O. Box 203, 7236 Mi Street","Frankfort","Kentucky","11153"
"P586302635","Blythe N. Morton"," Clinical chemistry ","989-9967 Est Road","Louisville","KY","10476"
"P811627276","Otto A. Moody"," Physical medicine and rehabilitation ","6174 Nam Avenue","Fresno","California","92925"
"P347842584","Jada O. Dillard"," Paediatrics ","P.O. Box 313, 3036 Vestibulum Avenue","Reading","Pennsylvania","16662"
"P313514641","Doris U. Rose"," Cardiology ","456-8983 Lorem, Road","Eugene","OR","81812"
"P094714405","Upton Q. Rice"," Internal medicine ","Ap #103-2892 Egestas, Av.","Topeka","KS","46722"
"P728550289","Imogene T. Glover"," Pharmacology ","P.O. Box 251, 2918 Lectus Rd.","Philadelphia","PA","38309"
"P836232972","Cairo F. Townsend"," Endocrinology ","131-9463 Montes, Rd.","Bowling Green","KY","75367"
"P379461670","Claire F. King"," Psychiatry ","Ap #557-4984 In Av.","Clarksville","TN","46065"
"P129874482","Kareem L. Villarreal"," Dental, oral and maxillo-facial surgery ","P.O. Box 655, 9770 Ut, Ave","Biloxi","MS","88823"
"P357579989","Farrah F. Sanchez"," Occupational medicine ","Ap #187-3774 Malesuada Road","Reno","Nevada","52010"
"P159775606","Prescott K. Parsons"," Geriatrics ","9244 Lacinia Avenue","Virginia Beach","VA","35585"
"P779425438","Dolan K. Little"," Psychiatry ","811-9665 Curabitur Avenue","Salt Lake City","Utah","23399"
"P868435624","Portia M. Reyes"," Dental, oral and maxillo-facial surgery ","P.O. Box 589, 9759 Nec Avenue","Bloomington","Minnesota","65468"
"P050287499","Jorden E. Marks"," Neurology ","Ap #504-5371 Ligula Rd.","Salt Lake City","Utah","59120"
"P686080743","Haviva S. Robles"," Podiatric Surgery ","P.O. Box 791, 9840 Convallis, St.","Covington","Kentucky","21598"
"P184776637","Destiny W. Jacobs"," General Practitioner ","716-5743 Congue Rd.","Jonesboro","AR","72520"
"P780766128","John H. Mcneil"," Orthopaedics ","3282 Vulputate, Avenue","Fort Smith","AR","71989"
"P084209328","Melissa E. Drake","Accident and emergency medicine ","P.O. Box 637, 2658 Ornare Ave","Miami","FL","74380"
"P603248993","Zachary R. Castillo"," Ophthalmology ","297-1739 Risus Road","Broken Arrow","Oklahoma","95989"
"P595143715","Ila P. Compton","Accident and emergency medicine ","7668 Duis Av.","Grand Rapids","MI","55786"
"P972305629","Noble M. Charles"," Radiotherapy ","715-7894 Fringilla Ave","Houston","TX","61389"
"P247302633","Wayne T. Watts"," Dermatology ","308 Interdum. St.","Minneapolis","MN","41575"
"P080518474","Breanna F. Cain"," General Practitioner ","P.O. Box 759, 1667 Quisque St.","New Haven","Connecticut","78911"
"P072012499","Jeremy B. Huff"," Tropical medicine ","P.O. Box 327, 3065 Duis Ave","Hartford","CT","63615"
"P693117007","Clarke N. Gardner"," Radiology ","Ap #175-5105 Arcu. Av.","Great Falls","MT","31199"
"P563629014","Tad Q. Benton"," Obstetrics and gynecology ","1344 Aliquet St.","Provo","Utah","96646"
"P643218140","Paki Z. Hinton"," Radiotherapy ","9593 Nunc. Rd.","Gulfport","MS","85778"
"P083592495","Petra E. Thompson"," Neurology ","1306 Fermentum Avenue","Portland","Oregon","59486"
"P814437939","Ima L. Luna"," Orthopaedics ","P.O. Box 372, 1430 Malesuada Rd.","Waterbury","CT","60672"
"P419461848","Bruno O. Guy"," General surgery ","462-3300 Mauris Ave","West Jordan","Utah","55294"
"P411376052","Karyn A. Parker"," Vascular surgery ","Ap #892-1567 Orci, St.","San Francisco","California","90095"
"P415940504","Madonna S. Sanchez"," Immunology ","9800 Risus. St.","Nampa","Idaho","22116"
"P240011511","Allistair Z. Norman"," Clinical biology ","601-7055 Ante Ave","Little Rock","AR","72880"
"P155800640","Quentin L. Gilbert"," Venereology ","489-7232 Aenean Av.","Portland","Oregon","92655"
"P763092062","Harlan Y. Mccray"," Allergology ","P.O. Box 360, 2806 Aenean Avenue","Chesapeake","VA","57111"
"P873182452","Zorita O. Spence"," Respiratory medicine ","P.O. Box 323, 7230 Egestas Rd.","Seattle","Washington","63710"
"P104289385","Halee Y. Stevenson"," Plastic surgery ","P.O. Box 760, 3260 Turpis Avenue","Newport News","VA","79994"
"P004506263","Plato X. Meyers"," Tropical medicine ","P.O. Box 698, 601 Quis Ave","Little Rock","Arkansas","71367"
"P958561148","Mechelle A. Fowler"," Pathology ","Ap #157-8954 Phasellus Avenue","Wichita","KS","15481"
"P345555753","Olga R. Diaz"," Venereology ","482-9030 Suspendisse St.","Denver","CO","39734"
"P413317723","Xander B. Fisher"," Gastroenterology ","7209 Aptent Road","Provo","UT","93148"
"P798473178","Jena S. Reyes"," Pathology ","319-187 Libero Road","Salem","OR","59487"
"P196692711","Marsden G. Summers"," Plastic surgery ","Ap #899-518 Nunc Street","Anchorage","Alaska","99666"
"P182878507","Azalia O. Bryan"," Maxillo-facial surgery ","Ap #604-1167 Donec Rd.","Davenport","IA","49222"
